{
  "type": "FeatureCollection",
  "features": [
    {
      "type": "Feature",
      "properties": {
        "norad_id": 40799,
        "name": "COSMOS 2251 DEB",
        "group": "cosmos-2251-debris",
        "lat": -56.342247916956715,
        "lon": -64.12776287994653,
        "alt_km": 584.6608461422338,
        "timestamp": "2025-12-16T17:51:11.330865+00:00",
        "meta_object_name": "COSMOS 2251 DEB",
        "meta_object_id": "1993-036BWC",
        "meta_epoch": "2025-12-15T13:30:14.400288",
        "meta_mean_motion": 14.9668839,
        "meta_eccentricity": 0.01192138,
        "meta_inclination": 73.9261,
        "meta_ra_of_asc_node": 92.6157,
        "meta_arg_of_pericenter": 333.9038,
        "meta_mean_anomaly": 25.6165,
        "meta_ephemeris_type": 0,
        "meta_classification_type": "U",
        "meta_norad_cat_id": 40799,
        "meta_element_set_no": 999,
        "meta_rev_at_epoch": 50019,
        "meta_bstar": 0.00025656013,
        "meta_mean_motion_dot": 3.339e-05,
        "meta_mean_motion_ddot": 0,
        "tle_line1": "1 40799U 93036BWC 25349.56266667  .00003339  00000+0  25656-3 0  9991",
        "tle_line2": "2 40799  73.9261  92.6157 0119213 333.9038  25.6165 14.96688390500199"
      },
      "geometry": {
        "type": "Point",
        "coordinates": [
          -64.12776287994653,
          -56.342247916956715
        ]
      }
    },
    {
      "type": "Feature",
      "properties": {
        "norad_id": 40802,
        "name": "COSMOS 2251 DEB",
        "group": "cosmos-2251-debris",
        "lat": 13.634588088711105,
        "lon": 149.13888440941145,
        "alt_km": 666.5079368042852,
        "timestamp": "2025-12-16T17:51:11.330875+00:00",
        "meta_object_name": "COSMOS 2251 DEB",
        "meta_object_id": "1993-036BWF",
        "meta_epoch": "2025-12-14T04:02:34.779840",
        "meta_mean_motion": 14.7763135,
        "meta_eccentricity": 0.00631025,
        "meta_inclination": 74.0398,
        "meta_ra_of_asc_node": 150.2093,
        "meta_arg_of_pericenter": 248.6873,
        "meta_mean_anomaly": 110.7559,
        "meta_ephemeris_type": 0,
        "meta_classification_type": "U",
        "meta_norad_cat_id": 40802,
        "meta_element_set_no": 999,
        "meta_rev_at_epoch": 64430,
        "meta_bstar": 0.00084362537,
        "meta_mean_motion_dot": 6.208e-05,
        "meta_mean_motion_ddot": 0,
        "tle_line1": "1 40802U 93036BWF 25348.16845810  .00006208  00000+0  84363-3 0  9992",
        "tle_line2": "2 40802  74.0398 150.2093 0063102 248.6873 110.7559 14.77631350644309"
      },
      "geometry": {
        "type": "Point",
        "coordinates": [
          149.13888440941145,
          13.634588088711105
        ]
      }
    },
    {
      "type": "Feature",
      "properties": {
        "norad_id": 40803,
        "name": "COSMOS 2251 DEB",
        "group": "cosmos-2251-debris",
        "lat": -23.09991666642332,
        "lon": -128.62456098046607,
        "alt_km": 709.8365369375251,
        "timestamp": "2025-12-16T17:51:11.330885+00:00",
        "meta_object_name": "COSMOS 2251 DEB",
        "meta_object_id": "1993-036BWG",
        "meta_epoch": "2025-12-05T22:55:29.451072",
        "meta_mean_motion": 14.51792027,
        "meta_eccentricity": 0.00362816,
        "meta_inclination": 74.0122,
        "meta_ra_of_asc_node": 64.6912,
        "meta_arg_of_pericenter": 281.8159,
        "meta_mean_anomaly": 77.8934,
        "meta_ephemeris_type": 0,
        "meta_classification_type": "U",
        "meta_norad_cat_id": 40803,
        "meta_element_set_no": 999,
        "meta_rev_at_epoch": 58654,
        "meta_bstar": 0.00062935795,
        "meta_mean_motion_dot": 2.525e-05,
        "meta_mean_motion_ddot": 0,
        "tle_line1": "1 40803U 93036BWG 25339.95520198  .00002525  00000+0  62936-3 0  9999",
        "tle_line2": "2 40803  74.0122  64.6912 0036281 281.8159  77.8934 14.51792027586549"
      },
      "geometry": {
        "type": "Point",
        "coordinates": [
          -128.62456098046607,
          -23.09991666642332
        ]
      }
    },
    {
      "type": "Feature",
      "properties": {
        "norad_id": 40808,
        "name": "COSMOS 2251 DEB",
        "group": "cosmos-2251-debris",
        "lat": -14.42138014350938,
        "lon": 133.52238122360828,
        "alt_km": 679.4388164383017,
        "timestamp": "2025-12-16T17:51:11.330896+00:00",
        "meta_object_name": "COSMOS 2251 DEB",
        "meta_object_id": "1993-036BWM",
        "meta_epoch": "2025-12-14T10:26:23.947296",
        "meta_mean_motion": 14.67521504,
        "meta_eccentricity": 0.00090305,
        "meta_inclination": 74.0408,
        "meta_ra_of_asc_node": 142.1983,
        "meta_arg_of_pericenter": 179.2198,
        "meta_mean_anomaly": 212.7135,
        "meta_ephemeris_type": 0,
        "meta_classification_type": "U",
        "meta_norad_cat_id": 40808,
        "meta_element_set_no": 999,
        "meta_rev_at_epoch": 63644,
        "meta_bstar": 0.0018628383,
        "meta_mean_motion_dot": 0.00010555,
        "meta_mean_motion_ddot": 0,
        "tle_line1": "1 40808U 93036BWM 25348.43499939  .00010555  00000+0  18628-2 0  9995",
        "tle_line2": "2 40808  74.0408 142.1983 0009030 179.2198 212.7135 14.67521504636441"
      },
      "geometry": {
        "type": "Point",
        "coordinates": [
          133.52238122360828,
          -14.42138014350938
        ]
      }
    },
    {
      "type": "Feature",
      "properties": {
        "norad_id": 40810,
        "name": "COSMOS 2251 DEB",
        "group": "cosmos-2251-debris",
        "lat": 42.17415022307738,
        "lon": -127.91707318729618,
        "alt_km": 691.7580700309936,
        "timestamp": "2025-12-16T17:51:11.330906+00:00",
        "meta_object_name": "COSMOS 2251 DEB",
        "meta_object_id": "1993-036BWP",
        "meta_epoch": "2025-12-15T05:01:17.555808",
        "meta_mean_motion": 14.58738297,
        "meta_eccentricity": 0.00184081,
        "meta_inclination": 74.0368,
        "meta_ra_of_asc_node": 70.0332,
        "meta_arg_of_pericenter": 221.6033,
        "meta_mean_anomaly": 138.3733,
        "meta_ephemeris_type": 0,
        "meta_classification_type": "U",
        "meta_norad_cat_id": 40810,
        "meta_element_set_no": 999,
        "meta_rev_at_epoch": 61719,
        "meta_bstar": 0.00049187083,
        "meta_mean_motion_dot": 2.273e-05,
        "meta_mean_motion_ddot": 0,
        "tle_line1": "1 40810U 93036BWP 25349.20923097  .00002273  00000+0  49187-3 0  9994",
        "tle_line2": "2 40810  74.0368  70.0332 0018408 221.6033 138.3733 14.58738297617192"
      },
      "geometry": {
        "type": "Point",
        "coordinates": [
          -127.91707318729618,
          42.17415022307738
        ]
      }
    },
    {
      "type": "Feature",
      "properties": {
        "norad_id": 46271,
        "name": "COSMOS 2251 DEB",
        "group": "cosmos-2251-debris",
        "lat": -74.02861350973237,
        "lon": -17.206939737619628,
        "alt_km": 722.4196400518495,
        "timestamp": "2025-12-16T17:51:11.330916+00:00",
        "meta_object_name": "COSMOS 2251 DEB",
        "meta_object_id": "1993-036BWT",
        "meta_epoch": "2025-12-14T23:15:23.859360",
        "meta_mean_motion": 14.51434388,
        "meta_eccentricity": 0.00401696,
        "meta_inclination": 74.0488,
        "meta_ra_of_asc_node": 74.0218,
        "meta_arg_of_pericenter": 195.2544,
        "meta_mean_anomaly": 164.741,
        "meta_ephemeris_type": 0,
        "meta_classification_type": "U",
        "meta_norad_cat_id": 46271,
        "meta_element_set_no": 999,
        "meta_rev_at_epoch": 84674,
        "meta_bstar": 0.00028085517,
        "meta_mean_motion_dot": 1.104e-05,
        "meta_mean_motion_ddot": 0,
        "tle_line1": "1 46271U 93036BWT 25348.96902615  .00001104  00000+0  28086-3 0  9993",
        "tle_line2": "2 46271  74.0488  74.0218 0040169 195.2544 164.7410 14.51434388846748"
      },
      "geometry": {
        "type": "Point",
        "coordinates": [
          -17.206939737619628,
          -74.02861350973237
        ]
      }
    },
    {
      "type": "Feature",
      "properties": {
        "norad_id": 46430,
        "name": "COSMOS 2251 DEB",
        "group": "cosmos-2251-debris",
        "lat": -24.0629959513232,
        "lon": -18.64612735209666,
        "alt_km": 696.6700377597517,
        "timestamp": "2025-12-16T17:51:11.330926+00:00",
        "meta_object_name": "COSMOS 2251 DEB",
        "meta_object_id": "1993-036BWU",
        "meta_epoch": "2025-12-12T18:01:09.115680",
        "meta_mean_motion": 14.51304268,
        "meta_eccentricity": 0.01036453,
        "meta_inclination": 73.9144,
        "meta_ra_of_asc_node": 356.326,
        "meta_arg_of_pericenter": 276.5668,
        "meta_mean_anomaly": 82.3702,
        "meta_ephemeris_type": 0,
        "meta_classification_type": "U",
        "meta_norad_cat_id": 46430,
        "meta_element_set_no": 999,
        "meta_rev_at_epoch": 79683,
        "meta_bstar": 0.0031599798,
        "meta_mean_motion_dot": 0.00013483,
        "meta_mean_motion_ddot": 0,
        "tle_line1": "1 46430U 93036BWU 25346.75079995  .00013483  00000+0  31600-2 0  9999",
        "tle_line2": "2 46430  73.9144 356.3260 0103645 276.5668  82.3702 14.51304268796830"
      },
      "geometry": {
        "type": "Point",
        "coordinates": [
          -18.64612735209666,
          -24.0629959513232
        ]
      }
    }
  ]
}